[
    {
        "CCSDS_OMM_VERS": "3.0",
        "COMMENT": "GENERATED VIA SPACE-TRACK.ORG API",
        "CREATION_DATE": "2025-04-14T03:05:54",
        "ORIGINATOR": "18 SPCS",
        "OBJECT_NAME": "QZS-1 (MICHIBIKI)",
        "OBJECT_ID": "2010-045A",
        "CENTER_NAME": "EARTH",
        "REF_FRAME": "TEME",
        "TIME_SYSTEM": "UTC",
        "MEAN_ELEMENT_THEORY": "SGP4",
        "EPOCH": "2025-04-13T09:13:47.006112",
        "MEAN_MOTION": "0.87715943",
        "ECCENTRICITY": "0.00017350",
        "INCLINATION": "43.6475",
        "RA_OF_ASC_NODE": "121.1124",
        "ARG_OF_PERICENTER": "8.6524",
        "MEAN_ANOMALY": "172.6317",
        "EPHEMERIS_TYPE": "0",
        "CLASSIFICATION_TYPE": "U",
        "NORAD_CAT_ID": "37158",
        "ELEMENT_SET_NO": "999",
        "REV_AT_EPOCH": "5262",
        "BSTAR": "0.00000000000000",
        "MEAN_MOTION_DOT": "0.00000049",
        "MEAN_MOTION_DDOT": "0.0000000000000",
        "SEMIMAJOR_AXIS": "46098.078",
        "PERIOD": "1641.663",
        "APOAPSIS": "39727.941",
        "PERIAPSIS": "39711.945",
        "OBJECT_TYPE": "PAYLOAD",
        "RCS_SIZE": "LARGE",
        "COUNTRY_CODE": "JPN",
        "LAUNCH_DATE": "2010-09-11",
        "SITE": "TNSTA",
        "DECAY_DATE": null,
        "FILE": "4701263",
        "GP_ID": "285534527",
        "TLE_LINE0": "0 QZS-1 (MICHIBIKI)",
        "TLE_LINE1": "1 37158U 10045A   25103.38457183  .00000049  00000-0  00000-0 0  9997",
        "TLE_LINE2": "2 37158  43.6475 121.1124 0001735   8.6524 172.6317  0.87715943 52624"
    }
]